[ {"name": "STARLINK-30501", "line1": "1 57917U 23147E   26127.88993101 -.00125496  00000+0 -46671-2 0  9997", "line2": "2 57917  43.0045 350.7299 0001164 275.5943  84.4776 15.27308872145671"}, {"name": "STARLINK-30499", "line1": "1 57918U 23147F   26127.28762895 -.00001891  00000+0 -59213-4 0  9996", "line2": "2 57918  43.0061 209.2945 0002213 280.1887  79.8715 15.27559827147290"}, {"name": "STARLINK-30496", "line1": "1 57919U 23147G   26127.63992101 -.00005404  00000+0 -18686-3 0  9993", "line2": "2 57919  43.0042 352.2900 0001711 270.1876  89.8779 15.27603360145649"}, {"name": "STARLINK-30485", "line1": "1 57920U 23147H   26127.64377883  .00000867  00000+0  41061-4 0  9990", "line2": "2 57920  43.0063 352.3246 0001815 266.1615  93.9030 15.27572457145647"}, {"name": "STARLINK-30492", "line1": "1 57921U 23147J   26127.65020096  .00001218  00000+0  53771-4 0  9995", "line2": "2 57921  43.0045 352.3665 0001460 269.5092  90.5592 15.27580220145615"}, {"name": "STARLINK-30440", "line1": "1 57923U 23147L   26127.66949554  .00015323  00000+0  56657-3 0  9994", "line2": "2 57923  43.0064 352.5079 0002258 260.7012  99.3585 15.27499358145643"}, {"name": "STARLINK-30487", "line1": "1 57924U 23147M   26127.65020976 -.00001499  00000+0 -46230-4 0  9990", "line2": "2 57924  43.0050 355.7490 0001196 274.2361  85.8353 15.26734607145605"}, {"name": "STARLINK-30452", "line1": "1 57925U 23147N   26127.67204326 -.00000313  00000+0 -18342-5 0  9994", "line2": "2 57925  43.0068 352.5257 0001356 263.1652  96.9045 15.27584352145612"}, {"name": "STARLINK-30468", "line1": "1 57926U 23147P   26127.62915919 -.00000859  00000+0 -21694-4 0  9995", "line2": "2 57926  43.0074 355.6232 0002124 264.8160  95.2449 15.27575946145577"}, {"name": "STARLINK-30448", "line1": "1 57928U 23147R   26126.92404182 -.00004684  00000+0 -16075-3 0  9990", "line2": "2 57928  43.0023 359.7746 0001447 257.9750 102.0940 15.27588667145468"}, {"name": "STARLINK-30476", "line1": "1 57930U 23147T   26127.83335647  .01123334  00000+0  14624-1 0  9992", "line2": "2 57930  42.9931 290.0893 0016702 206.9540 118.9837 15.55094118  5749"}, {"name": "STARLINK-30488", "line1": "1 57931U 23147U   26127.64711701 -.00003928  00000+0 -13324-3 0  9996", "line2": "2 57931  43.0033 355.7390 0001691 280.8257  79.2404 15.27589511145607"}, {"name": "STARLINK-30471", "line1": "1 57932U 23147V   26127.61422806  .00000370  00000+0  23001-4 0  9999", "line2": "2 57932  43.0054 352.0985 0001983 262.6651  97.3976 15.27568587145617"}, {"name": "STARLINK-30461", "line1": "1 57933U 23147W   26127.61037249  .00000185  00000+0  16243-4 0  9997", "line2": "2 57933  43.0061 352.0727 0001723 272.0071  88.0583 15.27576628145619"}, {"name": "STARLINK-30712", "line1": "1 57935U 23148A   26127.27686759  .00001576  00000+0  65327-4 0  9990", "line2": "2 57935  53.1593 112.0722 0000678  74.8673 285.2403 15.30185280147399"}, {"name": "STARLINK-30716", "line1": "1 57936U 23148B   26127.37172735  .00009329  00000+0  32718-3 0  9997", "line2": "2 57936  53.1600 111.8556 0001577  81.8204 278.2975 15.30151782147406"}, {"name": "STARLINK-30400", "line1": "1 57937U 23148C   26127.28002867  .00001828  00000+0  73867-4 0  9993", "line2": "2 57937  53.1601 112.0436 0001275  74.9303 285.1839 15.30182687147398"}, {"name": "STARLINK-30710", "line1": "1 57938U 23148D   26127.20215404 -.00000461  00000+0 -34379-5 0  9999", "line2": "2 57938  53.1607 102.4301 0001164  86.4433 273.6701 15.30193881147510"}, {"name": "STARLINK-30714", "line1": "1 57939U 23148E   26127.24741926 -.00000466  00000+0 -36015-5 0  9991", "line2": "2 57939  53.1594 112.4886 0001137  87.2166 272.8965 15.30193164147389"}, {"name": "STARLINK-30711", "line1": "1 57940U 23148F   26127.37488764 -.00000650  00000+0 -98502-5 0  9999", "line2": "2 57940  53.1591 111.8768 0000773  62.2112 297.8968 15.30189948147407"}, {"name": "STARLINK-30715", "line1": "1 57941U 23148G   26127.19368791 -.00000539  00000+0 -60909-5 0  9993", "line2": "2 57941  53.1600 102.2402 0001146 112.7784 247.3338 15.30196155147521"}, {"name": "STARLINK-30455", "line1": "1 57942U 23148H   26127.25057671 -.00000181  00000+0  60058-5 0  9990", "line2": "2 57942  53.1598 112.4747 0001333  96.2013 263.9140 15.30193176147381"}, {"name": "STARLINK-30456", "line1": "1 57943U 23148J   26127.49918992  .00000326  00000+0  23142-4 0  9991", "line2": "2 57943  53.1602 111.3090 0001267  94.3452 265.7693 15.30198022147422"}, {"name": "STARLINK-30708", "line1": "1 57944U 23148K   26127.21788185  .00000244  00000+0  20372-4 0  9992", "line2": "2 57944  53.1604 112.3967 0001183  89.5434 270.5702 15.30192379147381"}, {"name": "STARLINK-30705", "line1": "1 57945U 23148L   26127.35906073  .00000439  00000+0  26958-4 0  9998", "line2": "2 57945  53.1599 111.8613 0001195  82.9274 277.1863 15.30196161147406"}, {"name": "STARLINK-30704", "line1": "1 57946U 23148M   26127.57629135  .00001114  00000+0  49745-4 0  9994", "line2": "2 57946  53.1598 187.9196 0001233  79.6345 280.4794 15.30194093146334"}, {"name": "STARLINK-30706", "line1": "1 57947U 23148N   26127.83335647  .00053871  00000+0  15955-2 0  9997", "line2": "2 57947  53.1611 109.6315 0001013  87.0628  14.3065 15.34372422  5751"}, {"name": "STARLINK-30707", "line1": "1 57949U 23148Q   26127.68879719  .00000312  00000+0  22669-4 0  9999", "line2": "2 57949  53.1603 110.3576 0001464  70.9673 289.1486 15.30196084147450"}, {"name": "STARLINK-30701", "line1": "1 57950U 23148R   26127.68248846  .00020628  00000+0  70828-3 0  9993", "line2": "2 57950  53.1602 110.2958 0001864 111.9109 248.2090 15.30125920147456"}, {"name": "STARLINK-30399", "line1": "1 57951U 23148S   26127.80887811  .00000886  00000+0  42053-4 0  9993", "line2": "2 57951  53.1605 109.6677 0001359  75.1223 284.9928 15.30189578147475"}, {"name": "STARLINK-30713", "line1": "1 57952U 23148T   26127.20522307  .00000840  00000+0  40534-4 0  9996", "line2": "2 57952  53.1598 112.3232 0000920  95.2558 264.8547 15.30163165147380"}, {"name": "STARLINK-30700", "line1": "1 57953U 23148U   26127.30856227  .00005759  00000+0  20672-3 0  9993", "line2": "2 57953  53.1594 101.9300 0001531 104.3654 255.7516 15.30154792147533"}, {"name": "STARLINK-30703", "line1": "1 57954U 23148V   26127.41283595  .00000038  00000+0  13413-4 0  9999", "line2": "2 57954  53.1600 101.4061 0001149  92.9310 267.1822 15.30200111147553"}, {"name": "STARLINK-30702", "line1": "1 57955U 23148W   26127.22111586  .00000417  00000+0  26194-4 0  9990", "line2": "2 57955  53.1600 102.3363 0001240  90.4596 269.6547 15.30195219147520"}, {"name": "STARLINK-30396", "line1": "1 57964U 23151A   26127.67321786  .00000105  00000+0  13329-4 0  9998", "line2": "2 57964  43.0037   3.2048 0000982 272.6033  87.4706 15.27576483144783"}, {"name": "STARLINK-30524", "line1": "1 57965U 23151B   26127.01293232 -.00000365  00000+0 -37222-5 0  9990", "line2": "2 57965  43.0042   6.8510 0001584 268.6245  91.4425 15.27570044144681"}, {"name": "STARLINK-30521", "line1": "1 57966U 23151C   26127.69875061 -.00009232  00000+0 -32596-3 0  9990", "line2": "2 57966  43.0058   2.5349 0000951 274.2957  85.7786 15.27623036144790"}, {"name": "STARLINK-30528", "line1": "1 57967U 23151D   26127.70262865  .00000142  00000+0  14700-4 0  9992", "line2": "2 57967  43.0060   2.5641 0001498 267.4986  92.5694 15.27574189144790"}, {"name": "STARLINK-30495", "line1": "1 57968U 23151E   26127.71675509 -.00000537  00000+0 -99783-5 0  9992", "line2": "2 57968  43.0054   2.6687 0001770 272.7572  87.3077 15.27578321144797"}, {"name": "STARLINK-30494", "line1": "1 57970U 23151G   26127.53104292 -.00001438  00000+0 -42759-4 0  9992", "line2": "2 57970  43.0017 218.2453 0001573 269.2492  90.8179 15.27567114146453"}, {"name": "STARLINK-30498", "line1": "1 57971U 23151H   26127.71289192  .00003448  00000+0  13472-3 0  9996", "line2": "2 57971  43.0032   2.6265 0001777 256.1225 103.9429 15.27587300144790"}, {"name": "STARLINK-30505", "line1": "1 57972U 23151J   26127.67064792  .00022501  00000+0  82458-3 0  9990", "line2": "2 57972  43.0010   3.1648 0001275 279.8456  80.2252 15.27583866144782"}, {"name": "STARLINK-30502", "line1": "1 57973U 23151K   26127.70904581 -.00003758  00000+0 -12703-3 0  9995", "line2": "2 57973  43.0066   2.6005 0001643 268.2068  91.8595 15.27594544144799"}, {"name": "STARLINK-30489", "line1": "1 57974U 23151L   26127.64879604  .00008035  00000+0  30143-3 0  9995", "line2": "2 57974  43.0067   3.0051 0001935 255.4400 104.6237 15.27552361144785"}, {"name": "STARLINK-30503", "line1": "1 57975U 23151M   26127.67706146  .00002232  00000+0  90632-4 0  9992", "line2": "2 57975  43.0030   3.1926 0001464 266.5923  93.4761 15.27576942144786"}, {"name": "STARLINK-30512", "line1": "1 57976U 23151N   26127.70646678 -.00002186  00000+0 -69910-4 0  9995", "line2": "2 57976  43.0054   2.5267 0001229 276.7454  83.3258 15.27590283144799"}, {"name": "STARLINK-30509", "line1": "1 57977U 23151P   26127.73419117  .00020362  00000+0  74740-3 0  9995", "line2": "2 57977  43.0045  17.2176 0001890 254.9431 105.1212 15.27580772144626"}, {"name": "STARLINK-30511", "line1": "1 57978U 23151Q   26127.74061080 -.00000212  00000+0  18020-5 0  9993", "line2": "2 57978  43.0061  17.2661 0000770 251.9294 108.1474 15.27588277144625"}, {"name": "STARLINK-30508", "line1": "1 57979U 23151R   26127.74447582 -.00000891  00000+0 -22853-4 0  9991", "line2": "2 57979  43.0089  17.2852 0001618 267.4332  92.6335 15.27570168144628"}, {"name": "STARLINK-30510", "line1": "1 57981U 23151T   26127.72211587  .00007210  00000+0  27113-3 0  9999", "line2": "2 57981  43.0015  20.5310 0001492 257.4413 102.6272 15.27598250144584"}, {"name": "STARLINK-30507", "line1": "1 57982U 23151U   26127.72598367  .00002261  00000+0  91675-4 0  9990", "line2": "2 57982  43.0042  20.5600 0001547 262.8236  97.2439 15.27575841144575"}, {"name": "STARLINK-30515", "line1": "1 57983U 23151V   26127.72984291  .00017755  00000+0  65282-3 0  9994", "line2": "2 57983  43.0006  20.5845 0001587 272.7271  87.3399 15.27597748144575"}]